{
  "norad_id": 69093,
  "name": "TRANSPORTER-14 OBJECT BR",
  "history": [
    {
      "epoch": "2026-05-14T13:16:59.732832Z",
      "apogee_km": 788.5510113374121,
      "perigee_km": 159.95653701542233,
      "latitude_deg": 2.429642715445149e-06,
      "longitude_deg": 174.0117971135582,
      "height_km": 769.4605676006153,
      "semi_major_axis_km": 6852.390774176417,
      "eccentricity": 0.0458668,
      "inclination_deg": 97.4501,
      "raan_deg": 245.5583,
      "arg_perigee_deg": 200.8645,
      "mean_anomaly_deg": 157.3337,
      "mean_motion_rev_day": 15.3052201
    }
  ]
}