{"fetched_at":"2026-05-15T02:58:15Z","count":8847,"tles":[{"name":"TRANSPORTER-14 OBJECT BR","line1":"1 69093U 25135BW  26134.55346913  .01207524  20091-5  64151-3 0  9993","line2":"2 69093  97.4501 245.5583 0458668 200.8645 157.3337 15.30522010  1514","category":"Other"}]}